NORAD_CAT_ID,OBJECT_NAME,OBJECT_TYPE,EPOCH,MEAN_MOTION,ECCENTRICITY,INCLINATION,RA_OF_ASC_NODE,ARG_OF_PERICENTER,MEAN_ANOMALY,BSTAR,MEAN_MOTION_DOT,MEAN_MOTION_DDOT,TLE_LINE0,TLE_LINE1,TLE_LINE2,SEMIMAJOR_AXIS,PERIOD,APOGEE,PERIGEE,DECAYED
53601.0,STARLINK-4675,PAYLOAD,2022-09-11 14:00:01,15.73209724,9.85e-05,53.2171,216.4637,84.2805,198.4506,-6.5583e-05,-9.816e-05,0.0,0 STARLINK-4675,1 53601U 22104P   22254.58334491 -.00009816  00000-0 -65583-4 0  9993,2 53601  53.2171 216.4637 0000985  84.2805 198.4506 15.73209724  2302,6727.8669999999975,91.533,350.395,349.07,0.0
53601.0,STARLINK-4675,PAYLOAD,2022-09-11 20:00:01,15.7321485,0.0001006,53.2151,215.223,93.178,166.3542,0.00010583,0.00014267,0.0,0 STARLINK-4675,1 53601U 22104P   22254.83334491  .00014267  00000-0  10583-3 0  9994,2 53601  53.2151 215.2230 0001006  93.1780 166.3542 15.73214850  2346,6727.853,91.532,350.395,349.041,0.0
53601.0,STARLINK-4675,PAYLOAD,2022-09-11 22:00:00,15.73219514,0.0001051,53.2156,214.8109,94.0366,277.7327,5.0347e-05,6.457e-05,0.0,0 STARLINK-4675,1 53601U 22104P   22254.91667824  .00006457  00000-0  50347-4 0  9997,2 53601  53.2156 214.8109 0001051  94.0366 277.7327 15.73219514  1306,6727.84,91.532,350.412,348.997,0.0
53601.0,STARLINK-4675,PAYLOAD,2022-09-12 12:00:00,15.7323876,9.68e-05,53.2155,211.9255,82.2909,355.1356,-0.00044107,-0.00062165,0.0,0 STARLINK-4675,1 53601U 22104P   22255.50001157 -.00062165  00000-0 -44107-3 0  9990,2 53601  53.2155 211.9255 0000968  82.2909 355.1356 15.73238760  1300,6727.785,91.531,350.301,348.99800000000016,0.0
53601.0,STARLINK-4675,PAYLOAD,2022-09-12 20:00:01,15.73195198,0.000111,53.2156,210.2745,98.5182,67.92,0.00066001,0.0009302,0.0,0 STARLINK-4675,1 53601U 22104P   22255.83335648  .00093020  00000-0  66001-3 0  9990,2 53601  53.2156 210.2745 0001110  98.5182  67.9200 15.73195198  2506,6727.909000000002,91.533,350.521,349.027,0.0
53601.0,STARLINK-4675,PAYLOAD,2022-09-12 22:00:00,15.73239476,0.0001084,53.2158,209.8626,96.5617,182.0301,2.3515e-05,2.687e-05,0.0,0 STARLINK-4675,1 53601U 22104P   22255.91667824  .00002687  00000-0  23515-4 0  9996,2 53601  53.2158 209.8626 0001084  96.5617 182.0301 15.73239476  1307,6727.783,91.531,350.37699999999984,348.918,0.0
53601.0,STARLINK-4675,PAYLOAD,2022-09-13 06:00:00,15.7334088,0.0001068,53.2165,208.2172,67.7342,299.8157,-0.0026285,-0.00356445,0.0,0 STARLINK-4675,1 53601U 22104P   22256.25001157 -.00356445  00000-0 -26285-2 0  9996,2 53601  53.2165 208.2172 0001068  67.7342 299.8157 15.73340880  2568,6727.494000000002,91.525,350.077,348.64,0.0
53601.0,STARLINK-4675,PAYLOAD,2022-09-13 14:00:01,15.7297462,0.0001094,53.2169,206.5664,72.7366,23.8005,-0.0031085,-0.0041215,0.0,0 STARLINK-4675,1 53601U 22104P   22256.58334491 -.00412150  00000-0 -31085-2 0  9992,2 53601  53.2169 206.5664 0001094  72.7366  23.8005 15.72974620  1302,6728.538000000001,91.546,351.139,349.667,0.0
53601.0,STARLINK-4675,PAYLOAD,2022-09-13 16:00:00,15.72994305,0.0001065999999999,53.2176,206.1536,82.1844,126.4831,-0.0048366,-0.0062556999999999,0.0,0 STARLINK-4675,1 53601U 22104P   22256.66667824 -.00625570  00000-0 -48366-2 0  9992,2 53601  53.2176 206.1536 0001066  82.1844 126.4831 15.72994305  2635,6728.482,91.545,351.064,349.629,0.0
53601.0,STARLINK-4675,PAYLOAD,2022-09-13 20:00:01,15.72954858,0.0001176,53.2173,205.3282,74.8204,358.0894,-0.0089429,-0.0111089,0.0,0 STARLINK-4675,1 53601U 22104P   22256.83334491 -.01110890  00000-0 -89429-2 0  9992,2 53601  53.2173 205.3282 0001176  74.8204 358.0894 15.72954858  2665,6728.594,91.547,351.25,349.668,0.0
53601.0,STARLINK-4675,PAYLOAD,2022-09-13 22:00:00,15.72751445,0.0001204,53.2176,204.9164,92.8437,92.1929,-0.0089918,-0.0110761,0.0,0 STARLINK-4675,1 53601U 22104P   22256.91667824 -.01107610  00000-0 -89918-2 0  9999,2 53601  53.2176 204.9164 0001204  92.8437  92.1929 15.72751445  1304,6729.174,91.559,351.85,350.22900000000016,0.0
53601.0,STARLINK-4675,PAYLOAD,2022-09-14 14:00:01,15.7114769,0.0001002,53.2174,201.6237,94.7673,265.0993,-0.0096632,-0.01110942,0.0,0 STARLINK-4675,1 53601U 22104P   22257.58334491 -.01110942  00000-0 -96632-2 0  9997,2 53601  53.2174 201.6237 0001002  94.7673 265.0993 15.71147690  2770,6733.753000000002,91.653,356.292,354.9430000000001,0.0
53601.0,STARLINK-4675,PAYLOAD,2022-09-14 22:00:00,15.70383795,0.0001127,53.2173,199.9794,95.0819,350.7292,-0.01042,-0.01173909,0.0,0 STARLINK-4675,1 53601U 22104P   22257.91667824 -.01173909  00000-0 -10420-1 0  9995,2 53601  53.2173 199.9794 0001127  95.0819 350.7292 15.70383795  1309,6735.936,91.697,358.56,357.042,0.0
53601.0,STARLINK-4675,PAYLOAD,2022-09-15 04:00:00,15.69742448,0.0001060999999999,53.2176,198.7503,85.0406,334.6356,-0.0102379999999999,-0.01109487,0.0,0 STARLINK-4675,1 53601U 22104P   22258.16667824 -.01109487  00000-0 -10238-1 0  9990,2 53601  53.2176 198.7503 0001061  85.0406 334.6356 15.69742448  2861,6737.771,91.735,360.351,358.921,0.0
53601.0,STARLINK-4675,PAYLOAD,2022-09-15 14:00:01,15.68743187,0.0001072999999999,53.2175,196.6988,104.9851,149.8888,-0.01073,-0.01114694,0.0,0 STARLINK-4675,1 53601U 22104P   22258.58334491 -.01114694  00000-0 -10730-1 0  9990,2 53601  53.2175 196.6988 0001073 104.9851 149.8888 15.68743187  1306,6740.632,91.793,363.22,361.774,0.0
53601.0,STARLINK-4675,PAYLOAD,2022-09-15 22:00:00,15.67935301,0.0001038,53.2175,195.0612,101.0344,236.9153,-0.011017,-0.01107688,0.0,0 STARLINK-4675,1 53601U 22104P   22258.91667824 -.01107688  00000-0 -11017-1 0  9990,2 53601  53.2175 195.0612 0001038 101.0344 236.9153 15.67935301  1302,6742.946999999999,91.841,365.512,364.112,0.0
53601.0,STARLINK-4675,PAYLOAD,2022-09-16 00:00:00,15.67751959,0.0001099,53.217,194.6522,110.8746,337.6847,-0.011362,-0.01149719,0.0,0 STARLINK-4675,1 53601U 22104P   22259.00001157 -.01149719  00000-0 -11362-1 0  9996,2 53601  53.2170 194.6522 0001099 110.8746 337.6847 15.67751959  3006,6743.473000000001,91.851,366.079,364.597,0.0
53601.0,STARLINK-4675,PAYLOAD,2022-09-16 14:00:01,15.66327078,0.0001149,53.2175,191.7916,99.2866,41.9171,-0.011715,-0.01121257,0.0,0 STARLINK-4675,1 53601U 22104P   22259.58334491 -.01121257  00000-0 -11715-1 0  9998,2 53601  53.2175 191.7916 0001149  99.2866  41.9171 15.66327078  1301,6747.562,91.935,370.202,368.652,0.0
53601.0,STARLINK-4675,PAYLOAD,2022-09-16 22:00:00,15.65565668,0.0001261,53.2173,190.1594,109.3234,112.0371,-0.012705,-0.01173573,0.0,0 STARLINK-4675,1 53601U 22104P   22259.91667824 -.01173573  00000-0 -12705-1 0  9992,2 53601  53.2173 190.1594 0001261 109.3234 112.0371 15.65565668  1301,6749.749,91.98,372.466,370.763,0.0
53601.0,STARLINK-4675,PAYLOAD,2022-09-17 06:00:00,15.64737601,0.0001124,53.2171,188.5317,103.8703,196.7165,-0.01273,-0.01140706,0.0,0 STARLINK-4675,1 53601U 22104P   22260.25001157 -.01140706  00000-0 -12730-1 0  9992,2 53601  53.2171 188.5317 0001124 103.8703 196.7165 15.64737601  3197,6752.130999999999,92.028,374.754,373.237,0.0
53601.0,STARLINK-4675,PAYLOAD,2022-09-17 14:00:01,15.63918218,9.96e-05,53.2175,186.9018,104.4085,274.4389,-0.0128949999999999,-0.01120318,0.0,0 STARLINK-4675,1 53601U 22104P   22260.58334491 -.01120318  00000-0 -12895-1 0  9997,2 53601  53.2175 186.9018 0000996 104.4085 274.4389 15.63918218  1304,6754.489000000001,92.076,377.026,375.681,0.0
53601.0,STARLINK-4675,PAYLOAD,2022-09-17 22:00:00,15.63151,0.000112,53.2171,185.2759,113.3771,342.7347,-0.0138789999999999,-0.01164955,0.0,0 STARLINK-4675,1 53601U 22104P   22260.91667824 -.01164955  00000-0 -13879-1 0  9991,2 53601  53.2171 185.2759 0001120 113.3771 342.7347 15.63151000  1306,6756.699000000001,92.122,379.32,377.807,0.0
53601.0,STARLINK-4675,PAYLOAD,2022-09-18 04:00:00,15.62513869,0.0001125999999999,53.2175,184.0597,111.9535,311.5068,-0.0136379999999999,-0.01120829,0.0,0 STARLINK-4675,1 53601U 22104P   22261.16667824 -.01120829  00000-0 -13638-1 0  9994,2 53601  53.2175 184.0597 0001126 111.9535 311.5068 15.62513869  3349,6758.535,92.159,381.161,379.639,0.0
53601.0,STARLINK-4675,PAYLOAD,2022-09-18 14:00:01,15.61509392,0.0001199999999999,53.2174,182.0298,105.9122,141.9593,-0.014161,-0.01119113,0.0,0 STARLINK-4675,1 53601U 22104P   22261.58335648 -.01119113  00000-0 -14161-1 0  9992,2 53601  53.2174 182.0298 0001200 105.9122 141.9593 15.61509392  1309,6761.433000000001,92.218,384.11,382.487,0.0
53601.0,STARLINK-4675,PAYLOAD,2022-09-18 22:00:00,15.60745098,0.0001244,53.2171,180.4099,129.695,192.4803,-0.015286,-0.01167458,0.0,0 STARLINK-4675,1 53601U 22104P   22261.91667824 -.01167458  00000-0 -15286-1 0  9997,2 53601  53.2171 180.4099 0001244 129.6950 192.4803 15.60745098  3454,6763.641,92.264,386.347,384.664,0.0
53601.0,STARLINK-4675,PAYLOAD,2022-09-19 14:00:01,15.5909907,0.0001118,53.2175,177.1752,101.2941,6.7893,-0.015491,-0.01115706,0.0,0 STARLINK-4675,1 53601U 22104P   22262.58334491 -.01115706  00000-0 -15491-1 0  9999,2 53601  53.2175 177.1752 0001118 101.2941   6.7893 15.59099070  1301,6768.4,92.361,391.022,389.509,0.0
53601.0,STARLINK-4675,PAYLOAD,2022-09-19 22:00:00,15.58325004,0.0001236,53.2173,175.5612,112.9607,66.6031,-0.0165389999999999,-0.0115263,0.0,0 STARLINK-4675,1 53601U 22104P   22262.91667824 -.01152630  00000-0 -16539-1 0  9996,2 53601  53.2173 175.5612 0001236 112.9607  66.6031 15.58325004  1302,6770.641,92.407,393.343,391.67,0.0
53601.0,STARLINK-4675,PAYLOAD,2022-09-20 06:00:00,15.57494036,0.000128,53.2172,173.9504,114.4935,135.615,-0.016461,-0.01115482,0.0,0 STARLINK-4675,1 53601U 22104P   22263.25001157 -.01115482  00000-0 -16461-1 0  9993,2 53601  53.2172 173.9504 0001280 114.4935 135.6150 15.57494036  3664,6773.049,92.456,395.781,394.048,0.0
53601.0,STARLINK-4675,PAYLOAD,2022-09-20 14:00:01,15.56690162,0.0001105999999999,53.2173,172.338,110.9889,208.6876,-0.016955,-0.01114724,0.0,0 STARLINK-4675,1 53601U 22104P   22263.58334491 -.01114724  00000-0 -16955-1 0  9995,2 53601  53.2173 172.3380 0001106 110.9889 208.6876 15.56690162  1308,6775.380999999999,92.504,397.995,396.497,0.0
